CSS (TIANHE)            
1 48274U 21035A   23242.73739319  .00026210  00000+0  29958-3 0  9997
2 48274  41.4732  62.6209 0010829 268.5622  91.3976 15.61497770133485
